ASRTU-1
1 99130U 24099A   24329.51194444  .00065671  00000-0  27649-2 0 00006
2 99130 097.3817 194.0053 0017473 167.6397 355.8606 15.23261065000017
